EOSSAT-1                
1 55053U 23001AW  26068.73619225  .00007695  00000+0  24844-3 0  9992
2 55053  97.3357 130.2294 0011263 110.3168 249.9285 15.32339828176689
STARLINK-34307          
1 64489U 25133T   26068.53817192  .00028283  00000+0  96344-3 0  9994
2 64489  53.1581 117.6085 0001191  76.4205 283.6928 15.30198679 41147
